     2.100          NAVIGATION                              RINEX VERSION / TYPE
fic2rin                                 09/20/2014 00:16:26 PGM / RUN BY / DATE
                                                            END OF HEADER
11 14  9 20  0  0  0.0 -.522524584085D-03 -.295585778076D-11  .000000000000D+00
     .480000000000D+02 -.771562500000D+02  .596882005388D-08 -.158304904398D+01
    -.371597707272D-05  .155357818585D-01  .873394310474D-05  .515371375847D+04
     .518400000000D+06  .294297933578D-06  .224891957202D+01  .271946191788D-06
     .891330428519D+00  .167968750000D+03  .133354022735D+01 -.866107505426D-08
    -.514307137242D-10  .100000000000D+01  .181000000000D+04  .000000000000D+00
     .240000000000D+01  .000000000000D+00 -.121071934700D-07  .480000000000D+02
     .511206000000D+06  .400000000000D+01
12 14  9 20  0  0  0.0  .233158934861D-03  .261479726760D-11  .000000000000D+00
     .530000000000D+02  .620000000000D+02  .388051878204D-08 -.213429400399D+01
     .332854688168D-05  .505628972314D-02  .548362731934D-05  .515354601288D+04
     .518400000000D+06 -.931322574615D-08  .522577873340D+00 -.335276126862D-07
     .988506154632D+00  .288687500000D+03  .501543650986D+00 -.784032658107D-08
     .303941231801D-09  .100000000000D+01  .181000000000D+04  .000000000000D+00
     .240000000000D+01  .000000000000D+00 -.121071934700D-07  .530000000000D+02
     .511206000000D+06  .400000000000D+01
13 14  9 20  0  0  0.0 -.432385131717D-04 -.375166564481D-11  .000000000000D+00
     .390000000000D+02 -.255000000000D+02  .443232748137D-08  .684372930742D+00
    -.155530869961D-05  .589127198327D-02  .665150582790D-05  .515592730141D+04
     .518400000000D+06 -.186264514923D-08 -.150510388950D+01 -.126659870148D-06
     .976064501576D+00  .258562500000D+03  .223093211503D+01 -.806390732268D-08
    -.453590322429D-09  .100000000000D+01  .181000000000D+04  .000000000000D+00
     .340000000000D+01  .000000000000D+00 -.111758708954D-07  .390000000000D+02
     .511206000000D+06  .400000000000D+01
14 14  9 20  0  0  0.0  .133280176669D-03 -.375166564481D-11  .000000000000D+00
     .130000000000D+02 -.190312500000D+02  .467090884782D-08  .955009543821D+00
    -.983476638794D-06  .790915719699D-02  .676512718201D-05  .515371513557D+04
     .518400000000D+06 -.987201929092D-07 -.153782055724D+01  .819563865662D-07
     .968598250462D+00  .256656250000D+03 -.198074181995D+01 -.823820029697D-08
    -.460376319379D-09  .100000000000D+01  .181000000000D+04  .000000000000D+00
     .240000000000D+01  .000000000000D+00 -.884756445885D-08  .130000000000D+02
     .511206000000D+06  .400000000000D+01
16 14  9 20  0  0  0.0 -.193733721972D-03  .250111042988D-11  .000000000000D+00
     .380000000000D+02  .625625000000D+02  .398123726308D-08  .200947645979D+01
     .324472784996D-05  .765104277525D-02  .536628067493D-05  .515366095161D+04
     .518400000000D+06 -.838190317154D-07  .541170773615D+00  .372529029846D-07
     .989076208457D+00  .293562500000D+03  .237047292760D+00 -.796961768085D-08
     .208937274505D-09  .100000000000D+01  .181000000000D+04  .000000000000D+00
     .240000000000D+01  .000000000000D+00 -.102445483208D-07  .380000000000D+02
     .511206000000D+06  .400000000000D+01
17 14  9 20  0  0  0.0 -.125073827803D-03 -.261479726760D-11  .000000000000D+00
     .310000000000D+02 -.614062500000D+02  .451304512930D-08  .110524199662D+01
    -.327825546265D-05  .947297911625D-02  .447221100330D-05  .515364763451D+04
     .518400000000D+06 -.128522515297D-06  .157157706423D+01 -.931322574615D-08
     .969474588131D+00  .297093750000D+03 -.209501076074D+01 -.835284792964D-08
    -.208580116771D-09  .100000000000D+01  .181000000000D+04  .000000000000D+00
     .240000000000D+01  .000000000000D+00 -.102445483208D-07  .310000000000D+02
     .511206000000D+06  .400000000000D+01
18 14  9 20  0  0  0.0  .345989596099D-03  .250111042988D-11  .000000000000D+00
     .101000000000D+03  .408437500000D+02  .546594196414D-08  .261100415830D+01
     .197067856789D-05  .154881111812D-01  .664964318275D-05  .515372758675D+04
     .518400000000D+06  .819563865662D-07 -.267341974394D+01 -.203028321266D-06
     .925841811473D+00  .230125000000D+03 -.200986782256D+01 -.825462955274D-08
     .321084803042D-09  .100000000000D+01  .181000000000D+04  .000000000000D+00
     .340000000000D+01  .000000000000D+00 -.107102096081D-07  .101000000000D+03
     .511206000000D+06  .400000000000D+01
19 14  9 20  0  0  0.0 -.479529146105D-03 -.181898940355D-11  .000000000000D+00
     .570000000000D+02 -.737812500000D+02  .457590489052D-08  .246621000252D+00
    -.376068055630D-05  .106206506025D-01  .501982867718D-05  .515365127373D+04
     .518400000000D+06  .128522515297D-06  .162204670222D+01  .191852450371D-06
     .966581680795D+00  .286281250000D+03  .501905373573D+00 -.838070623291D-08
    -.187864968187D-09  .100000000000D+01  .181000000000D+04  .000000000000D+00
     .240000000000D+01  .000000000000D+00 -.149011611938D-07  .570000000000D+02
     .511206000000D+06  .400000000000D+01
20 14  9 20  0  0  0.0  .235843472183D-03  .443378667114D-11  .000000000000D+00
     .190000000000D+02  .402812500000D+02  .550272921076D-08  .312119731975D+01
     .205636024475D-05  .597597775050D-02  .759400427341D-05  .515372712135D+04
     .518400000000D+06  .119209289551D-06 -.272634051288D+01 -.119209289551D-06
     .926950804319D+00  .212843750000D+03  .132692922155D+01 -.842856536929D-08
     .413588656199D-09  .100000000000D+01  .181000000000D+04  .000000000000D+00
     .240000000000D+01  .000000000000D+00 -.791624188423D-08  .190000000000D+02
     .511206000000D+06  .400000000000D+01
21 14  9 20  0  0  0.0 -.384935643524D-03 -.204636307899D-11  .000000000000D+00
     .520000000000D+02 -.448125000000D+02  .480698594455D-08 -.272643646567D+01
    -.263564288616D-05  .216322812485D-01  .109449028969D-04  .515370304489D+04
     .518400000000D+06  .301748514175D-06  .256568654474D+01 -.122934579849D-06
     .933060301318D+00  .147437500000D+03 -.199345847674D+01 -.783568353053D-08
     .225723688012D-09  .100000000000D+01  .181000000000D+04  .000000000000D+00
     .240000000000D+01  .000000000000D+00 -.111758708954D-07  .520000000000D+02
     .511206000000D+06  .400000000000D+01
22 14  9 20  0  0  0.0  .269445590675D-03  .363797880709D-11  .000000000000D+00
     .106000000000D+03  .408125000000D+02  .566987903036D-08  .206181823939D+01
     .208616256714D-05  .735316437203D-02  .696815550327D-05  .515372044373D+04
     .518400000000D+06 -.353902578354D-07 -.267175805918D+01 -.188127160072D-06
     .923629073270D+00  .226593750000D+03 -.204974697671D+01 -.852606943073D-08
     .400373820034D-09  .100000000000D+01  .181000000000D+04  .000000000000D+00
     .340000000000D+01  .000000000000D+00 -.172294676304D-07  .106000000000D+03
     .511206000000D+06  .400000000000D+01
23 14  9 20  0  0  0.0 -.536339357495D-04 -.284217094304D-11  .000000000000D+00
     .620000000000D+02 -.207812500000D+02  .515807199726D-08 -.173119184412D+00
    -.116415321827D-05  .971409631893D-02  .578537583351D-05  .515372734070D+04
     .518400000000D+06  .800937414169D-07 -.160526870250D+01  .763684511185D-07
     .950306433357D+00  .259968750000D+03 -.272900597888D+01 -.852642658846D-08
    -.417517391275D-09  .100000000000D+01  .181000000000D+04  .000000000000D+00
     .240000000000D+01  .000000000000D+00 -.200234353542D-07  .620000000000D+02
     .511206000000D+06  .400000000000D+01
24 14  9 20  0  0  0.0 -.354670919478D-04 -.568434188608D-12  .000000000000D+00
     .970000000000D+02  .141250000000D+02  .436982487789D-08 -.821028201772D+00
     .679865479469D-06  .222356664017D-02  .105015933514D-04  .515371428108D+04
     .518400000000D+06  .875443220139D-07 -.578055973757D+00 -.242143869400D-07
     .955942563713D+00  .178156250000D+03  .243315729957D+00 -.794568811266D-08
    -.311798701953D-09  .100000000000D+01  .181000000000D+04  .000000000000D+00
     .340000000000D+01  .000000000000D+00  .279396772385D-08  .970000000000D+02
     .511206000000D+06  .400000000000D+01
25 14  9 20  0  0  0.0  .209817662835D-04 -.102318153949D-11  .000000000000D+00
     .320000000000D+02  .631562500000D+02  .410731394325D-08 -.287248567204D+01
     .335648655891D-05  .365872913972D-02  .534579157829D-05  .515355064774D+04
     .518400000000D+06  .260770320892D-07  .478845429537D+00  .279396772385D-07
     .977181326885D+00  .284187500000D+03  .719608139230D+00 -.795497421375D-08
     .294655130712D-09  .100000000000D+01  .181000000000D+04  .000000000000D+00
     .240000000000D+01  .000000000000D+00  .558793544769D-08  .320000000000D+02
     .511206000000D+06  .400000000000D+01
26 14  9 20  0  0  0.0 -.607799738646D-04 -.129602995003D-10  .000000000000D+00
     .760000000000D+02 -.236562500000D+02  .467340895196D-08 -.193059227429D+00
    -.109523534775D-05  .212327999761D-01  .660493969917D-05  .515368309593D+04
     .518400000000D+06 -.212341547012D-06 -.151428591824D+01  .173225998878D-06
     .973434404547D+00  .260562500000D+03  .129383274078D+01 -.851785480284D-08
    -.384658879729D-09  .100000000000D+01  .181000000000D+04  .000000000000D+00
     .240000000000D+01  .000000000000D+00 -.605359673500D-08  .760000000000D+02
     .511206000000D+06  .400000000000D+01
27 14  9 20  0  0  0.0  .158231705427D-04  .306954461848D-11  .000000000000D+00
     .370000000000D+02 -.651562500000D+02  .459519140817D-08  .923614856632D+00
    -.343285501003D-05  .149951188359D-02  .453554093838D-05  .515367922211D+04
     .518400000000D+06  .558793544769D-08  .152530119544D+01  .558793544769D-07
     .964272751339D+00  .294187500000D+03  .344354063043D+00 -.829891711178D-08
    -.171435712414D-09  .100000000000D+01  .181000000000D+04  .000000000000D+00
     .240000000000D+01  .000000000000D+00  .186264514923D-08  .370000000000D+02
     .511206000000D+06  .400000000000D+01
